{"type": "FeatureCollection", "features": [{"type": "Feature", "properties": {"name": "No elevation track"}, "geometry": {"type": "LineString", "coordinates": [[1.86982, 44.13325], [1.86965, 44.13214], [1.86976, 44.13125], [1.86901, 44.1306], [1.86763, 44.13017], [1.86533, 44.1289], [1.86463, 44.12842], [1.86394, 44.12864], [1.86268, 44.12797], [1.86126, 44.12739], [1.86019, 44.12681], [1.85919, 44.1263], [1.85728, 44.12446], [1.85561, 44.12336], [1.85454, 44.12271], [1.85295, 44.12159], [1.85148, 44.12102], [1.85051, 44.12059], [1.84985, 44.12001], [1.84929, 44.11939], [1.84862, 44.1189], [1.8484, 44.11794], [1.8474, 44.11722], [1.84658, 44.11617], [1.84586, 44.11584], [1.84481, 44.11495], [1.84402, 44.1146], [1.84344, 44.11453], [1.84247, 44.1146], [1.84102, 44.11449], [1.84038, 44.11466], [1.83894, 44.11393], [1.83701, 44.11351], [1.83527, 44.11307], [1.83672, 44.11197], [1.83611, 44.1116], [1.8343, 44.11091], [1.83229, 44.11043], [1.83091, 44.11074], [1.83017, 44.11236], [1.82923, 44.11374], [1.82696, 44.11377], [1.82491, 44.11338], [1.82295, 44.1131], [1.82354, 44.11162], [1.82417, 44.11132], [1.82463, 44.11107], [1.82478, 44.1106], [1.82508, 44.10999], [1.82526, 44.10945], [1.82527, 44.10859], [1.82523, 44.10812], [1.82495, 44.10659], [1.82391, 44.10546], [1.82007, 44.10712], [1.817, 44.10845], [1.81287, 44.109], [1.81191, 44.10904], [1.81106, 44.10938], [1.81097, 44.10795], [1.81129, 44.10648], [1.81042, 44.1073], [1.81028, 44.10717], [1.81055, 44.10601], [1.80958, 44.1054], [1.81065, 44.10515], [1.81114, 44.10446], [1.81193, 44.10485], [1.81251, 44.10436], [1.81172, 44.10406], [1.81077, 44.10264], [1.81045, 44.1023], [1.81139, 44.1017], [1.81065, 44.10168], [1.8101, 44.10147], [1.80985, 44.10068], [1.80973, 44.09982], [1.80942, 44.09893], [1.81036, 44.09728], [1.80993, 44.09656], [1.80785, 44.09628], [1.80515, 44.09643], [1.80434, 44.09725], [1.80267, 44.09854], [1.80215, 44.09934], [1.8019, 44.10003], [1.80075, 44.10031], [1.80027, 44.10067], [1.80001, 44.10171], [1.79994, 44.10317], [1.79916, 44.10413], [1.7995, 44.10454], [1.79862, 44.10511], [1.79913, 44.10634], [1.79878, 44.10703], [1.79666, 44.10752], [1.79567, 44.10707], [1.79436, 44.10529], [1.79302, 44.10419], [1.79156, 44.10364], [1.7901, 44.1031], [1.78834, 44.10466], [1.78736, 44.10643], [1.78646, 44.1068], [1.78558, 44.10728], [1.78395, 44.10605], [1.78229, 44.10426], [1.78138, 44.10258], [1.77921, 44.10134], [1.77681, 44.09993], [1.77392, 44.09907], [1.77179, 44.09745], [1.77078, 44.09722], [1.77086, 44.09677], [1.77036, 44.09612], [1.76916, 44.09519], [1.76592, 44.09339], [1.76429, 44.09191], [1.7638, 44.0907], [1.7628, 44.08995], [1.76169, 44.08932], [1.75991, 44.08865], [1.75805, 44.08786], [1.75692, 44.08727], [1.75519, 44.0879], [1.7536, 44.08819], [1.75237, 44.0884], [1.75107, 44.08859], [1.75009, 44.08883], [1.74948, 44.08876], [1.74858, 44.08871], [1.74719, 44.08847], [1.74564, 44.08846], [1.74418, 44.08814], [1.7433, 44.08796], [1.74489, 44.08772], [1.74638, 44.08765], [1.74738, 44.08761], [1.74808, 44.08739], [1.748, 44.08728], [1.7477, 44.08715], [1.74778, 44.08708], [1.74769, 44.08697], [1.74944, 44.08673], [1.74948, 44.08617], [1.74916, 44.08567], [1.748, 44.08547], [1.74669, 44.08509], [1.74585, 44.08478], [1.74528, 44.08475], [1.74474, 44.08428], [1.74408, 44.08372], [1.74407, 44.08184], [1.74381, 44.0806], [1.74408, 44.07866], [1.74486, 44.07744], [1.74494, 44.07635], [1.7462, 44.07557], [1.7473, 44.07469], [1.74667, 44.07453], [1.74522, 44.07517], [1.7428, 44.0756], [1.74176, 44.0753], [1.74026, 44.0754], [1.73883, 44.07555], [1.73759, 44.07473], [1.73525, 44.07472], [1.73422, 44.07527], [1.73295, 44.0759], [1.73169, 44.07671], [1.73095, 44.07681], [1.73095, 44.07714], [1.72989, 44.07786], [1.72779, 44.07911], [1.72674, 44.07975], [1.72827, 44.08208], [1.73143, 44.08386], [1.73292, 44.08473], [1.73289, 44.0854], [1.7314, 44.08617], [1.72949, 44.08541], [1.72769, 44.08468], [1.72712, 44.08427], [1.72697, 44.08442], [1.72737, 44.08495], [1.72791, 44.08555], [1.72763, 44.08564], [1.7267, 44.08512], [1.72487, 44.08451], [1.72349, 44.08445], [1.72258, 44.0845], [1.72124, 44.08377], [1.71949, 44.08329], [1.71783, 44.08282], [1.7167, 44.08217], [1.71518, 44.08181], [1.71225, 44.08233], [1.70915, 44.08313], [1.70756, 44.08374], [1.70706, 44.0838], [1.70652, 44.08375], [1.70573, 44.08371], [1.70492, 44.08374], [1.70423, 44.08377], [1.70155, 44.08381], [1.69995, 44.08339], [1.69822, 44.08333], [1.69671, 44.08377], [1.69536, 44.08453], [1.69407, 44.08389], [1.69203, 44.08388], [1.6908, 44.08397], [1.68989, 44.08415], [1.68897, 44.08279], [1.68791, 44.08088], [1.6866, 44.07872], [1.6856, 44.07732], [1.68398, 44.07552], [1.68208, 44.0742], [1.68101, 44.07352], [1.68012, 44.07265], [1.67917, 44.07173], [1.6776, 44.07073], [1.67515, 44.06995], [1.67342, 44.07005], [1.6725, 44.06933], [1.67216, 44.06831], [1.67139, 44.06706], [1.67046, 44.06597], [1.66967, 44.06475], [1.66971, 44.06361], [1.66966, 44.06259], [1.66948, 44.06092], [1.66931, 44.05962], [1.66905, 44.05813], [1.66965, 44.05638], [1.67181, 44.05447], [1.67251, 44.0516], [1.6746, 44.04961], [1.67456, 44.04714], [1.68014, 44.04646], [1.68515, 44.04661], [1.68871, 44.04804], [1.69577, 44.05215], [1.69988, 44.05252], [1.70273, 44.05206], [1.70533, 44.05222], [1.70705, 44.05259], [1.70798, 44.05174], [1.7081, 44.05235], [1.70987, 44.05278], [1.71212, 44.05315], [1.71474, 44.05453], [1.71637, 44.05477], [1.71815, 44.05508], [1.71928, 44.05511], [1.7209, 44.05623], [1.72266, 44.05702], [1.72467, 44.05757], [1.72643, 44.05807], [1.72695, 44.05803], [1.72866, 44.0579], [1.73053, 44.0575], [1.7324, 44.057], [1.73421, 44.05713], [1.73578, 44.05648], [1.73741, 44.05615], [1.73909, 44.05573], [1.74209, 44.05675], [1.74283, 44.05579], [1.74364, 44.05471], [1.7452, 44.05451], [1.74592, 44.05417], [1.74741, 44.05436], [1.74994, 44.05476], [1.75028, 44.05512], [1.75043, 44.0556], [1.75181, 44.0576], [1.75287, 44.05753], [1.75435, 44.05711], [1.75666, 44.0572], [1.75869, 44.05755], [1.75987, 44.05732], [1.7611, 44.05709], [1.76253, 44.05685], [1.76464, 44.05691], [1.76599, 44.05731], [1.77051, 44.05735], [1.77201, 44.05837], [1.77166, 44.05706], [1.77169, 44.05597], [1.77412, 44.0557], [1.77465, 44.05541], [1.77838, 44.05544], [1.77759, 44.05628], [1.77771, 44.05715], [1.7803, 44.05714], [1.78211, 44.05722], [1.78296, 44.05748], [1.78366, 44.05803], [1.7844, 44.05815], [1.7851, 44.05812], [1.78683, 44.05781], [1.7876, 44.05733], [1.78843, 44.05708], [1.78924, 44.05679], [1.78991, 44.05698], [1.7904, 44.05809], [1.79078, 44.05887], [1.791, 44.06001], [1.79018, 44.06064], [1.78942, 44.06135], [1.78894, 44.06221], [1.78873, 44.06259], [1.78873, 44.06322], [1.78839, 44.06339], [1.78833, 44.06501], [1.78868, 44.06672], [1.78909, 44.06725], [1.79085, 44.06763], [1.79252, 44.06921], [1.79398, 44.06933], [1.79484, 44.06989], [1.79524, 44.06983], [1.7957, 44.0697], [1.79619, 44.06947], [1.7976, 44.06967], [1.79854, 44.07021], [1.7997, 44.07082], [1.80018, 44.07148], [1.80052, 44.07179], [1.80109, 44.0718], [1.80216, 44.07287], [1.80363, 44.07414], [1.80461, 44.07468], [1.80505, 44.07526], [1.80626, 44.07509], [1.80752, 44.07547], [1.80794, 44.07628], [1.80859, 44.07778], [1.80942, 44.0785], [1.81005, 44.07914], [1.81006, 44.07984], [1.81037, 44.08041], [1.81072, 44.08084], [1.81105, 44.08119], [1.81174, 44.08162], [1.81257, 44.08245], [1.81395, 44.0839], [1.81702, 44.08432], [1.81857, 44.08404], [1.8184, 44.08456], [1.81929, 44.08478], [1.82003, 44.08551], [1.82006, 44.08702], [1.82123, 44.08819], [1.82277, 44.08784], [1.82387, 44.08654], [1.82446, 44.08601], [1.82566, 44.08621], [1.82666, 44.08676], [1.82769, 44.08727], [1.82878, 44.08663], [1.8298, 44.08691], [1.8317, 44.08748], [1.83324, 44.08839], [1.83485, 44.08895], [1.83566, 44.08913], [1.83623, 44.09], [1.8371, 44.09089], [1.83741, 44.0915], [1.83699, 44.09214], [1.83745, 44.0925], [1.83794, 44.09352], [1.83721, 44.094], [1.83605, 44.09476], [1.83566, 44.09532], [1.83496, 44.09615], [1.83498, 44.09746], [1.83516, 44.0983], [1.83498, 44.09976], [1.83633, 44.09896], [1.83772, 44.09853], [1.83863, 44.09818], [1.83949, 44.09811], [1.8402, 44.09815], [1.8432, 44.09978], [1.84482, 44.10032], [1.84579, 44.10156], [1.84732, 44.10274], [1.84796, 44.10315], [1.84862, 44.10341], [1.84969, 44.10341], [1.85098, 44.10354], [1.8518, 44.10346], [1.85242, 44.1034], [1.85372, 44.10366], [1.85507, 44.10334], [1.85681, 44.10229], [1.85761, 44.10157], [1.85854, 44.10173], [1.85943, 44.10205], [1.86011, 44.10212], [1.86119, 44.10212], [1.8624, 44.10214], [1.86315, 44.1021], [1.86495, 44.10224], [1.8665, 44.10266], [1.86734, 44.10306], [1.86848, 44.10318], [1.86916, 44.10336], [1.87009, 44.10324], [1.87057, 44.10314], [1.87105, 44.10366], [1.87195, 44.10422], [1.87269, 44.10474], [1.87315, 44.10543], [1.87366, 44.10615], [1.8743, 44.10595], [1.87497, 44.1055], [1.87565, 44.10511], [1.87615, 44.10487], [1.87691, 44.10474], [1.87746, 44.10413], [1.87778, 44.10322], [1.87819, 44.10284], [1.87907, 44.10234], [1.87913, 44.10189], [1.87995, 44.10121], [1.88077, 44.1007], [1.88165, 44.10063], [1.88254, 44.10061], [1.88332, 44.1005], [1.88442, 44.09976], [1.88569, 44.09913], [1.88763, 44.0987], [1.88742, 44.09796], [1.88732, 44.09737], [1.8871, 44.09676], [1.88709, 44.09613], [1.88647, 44.09509], [1.88585, 44.09454], [1.88505, 44.09415], [1.88366, 44.09392], [1.882, 44.09403], [1.87984, 44.09452], [1.87889, 44.09508], [1.87827, 44.09536], [1.87652, 44.09555], [1.87623, 44.09612], [1.87578, 44.09661], [1.87452, 44.09716], [1.87405, 44.09792], [1.87339, 44.09842], [1.87254, 44.09915], [1.87174, 44.09958], [1.87057, 44.10004], [1.87021, 44.10013], [1.86945, 44.10023], [1.86844, 44.10021], [1.86783, 44.1004], [1.86784, 44.10072], [1.86798, 44.10106], [1.86856, 44.10126], [1.8681, 44.10148], [1.8692, 44.10161], [1.87042, 44.10209], [1.87107, 44.10238], [1.87172, 44.10251], [1.87089, 44.10289], [1.87067, 44.10328], [1.87139, 44.10387], [1.87211, 44.10431], [1.87283, 44.1049], [1.8733, 44.10568], [1.87375, 44.10632], [1.87335, 44.1065], [1.87258, 44.10661], [1.87163, 44.10661], [1.87064, 44.10685], [1.86963, 44.10699], [1.86891, 44.10672], [1.86816, 44.10669], [1.86717, 44.10658], [1.86585, 44.10653], [1.86438, 44.10626], [1.86396, 44.10664], [1.86284, 44.10735], [1.86194, 44.10791], [1.86248, 44.10866], [1.86412, 44.10947], [1.8643, 44.11015], [1.86406, 44.11097], [1.8636, 44.1118], [1.86385, 44.11313], [1.86514, 44.11603], [1.86664, 44.11782], [1.86883, 44.11897], [1.87091, 44.11928], [1.87241, 44.12019], [1.8742, 44.12149], [1.87733, 44.12162], [1.87846, 44.12398], [1.87885, 44.12475], [1.87918, 44.12566], [1.87888, 44.12647], [1.87904, 44.1273], [1.87896, 44.12798], [1.87837, 44.12811], [1.87769, 44.12858], [1.87695, 44.12893], [1.87542, 44.1293], [1.87423, 44.13022], [1.87351, 44.13194], [1.8729, 44.13451], [1.87268, 44.1354], [1.87286, 44.13588], [1.87227, 44.13607], [1.87114, 44.13525], [1.87046, 44.1344], [1.86997, 44.13364]]}}]}